{
  "type": "FeatureCollection",
  "features": [
    {
      "type": "Feature",
      "properties": {
        "norad_id": 38474,
        "name": "IRIDIUM 33 DEB",
        "group": "iridium-33-debris",
        "lat": -49.957598576209186,
        "lon": 3.9599151837621456,
        "alt_km": 741.7227567533027,
        "timestamp": "2025-12-16T17:51:11.318032+00:00",
        "meta_object_name": "IRIDIUM 33 DEB",
        "meta_object_id": "1997-051AAB",
        "meta_epoch": "2025-12-13T08:58:04.646496",
        "meta_mean_motion": 14.5069505,
        "meta_eccentricity": 0.00282612,
        "meta_inclination": 86.3454,
        "meta_ra_of_asc_node": 9.789,
        "meta_arg_of_pericenter": 86.1077,
        "meta_mean_anomaly": 274.3358,
        "meta_ephemeris_type": 0,
        "meta_classification_type": "U",
        "meta_norad_cat_id": 38474,
        "meta_element_set_no": 999,
        "meta_rev_at_epoch": 65327,
        "meta_bstar": 0.00084561127,
        "meta_mean_motion_dot": 3.359e-05,
        "meta_mean_motion_ddot": 0,
        "tle_line1": "1 38474U 97051AAB 25347.37366489  .00003359  00000+0  84561-3 0  9991",
        "tle_line2": "2 38474  86.3454   9.7890 0028261  86.1077 274.3358 14.50695050653279"
      },
      "geometry": {
        "type": "Point",
        "coordinates": [
          3.9599151837621456,
          -49.957598576209186
        ]
      }
    },
    {
      "type": "Feature",
      "properties": {
        "norad_id": 39777,
        "name": "IRIDIUM 33 DEB",
        "group": "iridium-33-debris",
        "lat": 78.87297047102871,
        "lon": -165.8581007384782,
        "alt_km": 699.2653037148448,
        "timestamp": "2025-12-16T17:51:11.318044+00:00",
        "meta_object_name": "IRIDIUM 33 DEB",
        "meta_object_id": "1997-051AAJ",
        "meta_epoch": "2025-12-12T06:18:37.183104",
        "meta_mean_motion": 14.5641282,
        "meta_eccentricity": 0.00598335,
        "meta_inclination": 85.9631,
        "meta_ra_of_asc_node": 175.2743,
        "meta_arg_of_pericenter": 188.1374,
        "meta_mean_anomaly": 171.887,
        "meta_ephemeris_type": 0,
        "meta_classification_type": "U",
        "meta_norad_cat_id": 39777,
        "meta_element_set_no": 999,
        "meta_rev_at_epoch": 60178,
        "meta_bstar": 0.0041697031,
        "meta_mean_motion_dot": 0.00019016,
        "meta_mean_motion_ddot": 0,
        "tle_line1": "1 39777U 97051AAJ 25346.26293036  .00019016  00000+0  41697-2 0  9991",
        "tle_line2": "2 39777  85.9631 175.2743 0059833 188.1374 171.8870 14.56412820601783"
      },
      "geometry": {
        "type": "Point",
        "coordinates": [
          -165.8581007384782,
          78.87297047102871
        ]
      }
    },
    {
      "type": "Feature",
      "properties": {
        "norad_id": 39778,
        "name": "IRIDIUM 33 DEB",
        "group": "iridium-33-debris",
        "lat": -62.954973815682415,
        "lon": -131.38465561464406,
        "alt_km": 723.5288487153539,
        "timestamp": "2025-12-16T17:51:11.318054+00:00",
        "meta_object_name": "IRIDIUM 33 DEB",
        "meta_object_id": "1997-051AAK",
        "meta_epoch": "2025-12-15T02:45:26.160768",
        "meta_mean_motion": 14.54282095,
        "meta_eccentricity": 0.00077486,
        "meta_inclination": 86.3779,
        "meta_ra_of_asc_node": 42.1948,
        "meta_arg_of_pericenter": 34.959,
        "meta_mean_anomaly": 325.2125,
        "meta_ephemeris_type": 0,
        "meta_classification_type": "U",
        "meta_norad_cat_id": 39778,
        "meta_element_set_no": 999,
        "meta_rev_at_epoch": 60727,
        "meta_bstar": 0.00058175197,
        "meta_mean_motion_dot": 2.487e-05,
        "meta_mean_motion_ddot": 0,
        "tle_line1": "1 39778U 97051AAK 25349.11488612  .00002487  00000+0  58175-3 0  9999",
        "tle_line2": "2 39778  86.3779  42.1948 0007748  34.9590 325.2125 14.54282095607272"
      },
      "geometry": {
        "type": "Point",
        "coordinates": [
          -131.38465561464406,
          -62.954973815682415
        ]
      }
    },
    {
      "type": "Feature",
      "properties": {
        "norad_id": 39781,
        "name": "IRIDIUM 33 DEB",
        "group": "iridium-33-debris",
        "lat": -54.629387559944675,
        "lon": 81.45800052989149,
        "alt_km": 715.6789953722509,
        "timestamp": "2025-12-16T17:51:11.318064+00:00",
        "meta_object_name": "IRIDIUM 33 DEB",
        "meta_object_id": "1997-051AAN",
        "meta_epoch": "2025-12-15T00:15:44.903232",
        "meta_mean_motion": 14.2070789,
        "meta_eccentricity": 0.01756389,
        "meta_inclination": 86.371,
        "meta_ra_of_asc_node": 257.043,
        "meta_arg_of_pericenter": 266.0338,
        "meta_mean_anomaly": 111.7662,
        "meta_ephemeris_type": 0,
        "meta_classification_type": "U",
        "meta_norad_cat_id": 39781,
        "meta_element_set_no": 999,
        "meta_rev_at_epoch": 8139,
        "meta_bstar": 0.0031777078,
        "meta_mean_motion_dot": 8.021e-05,
        "meta_mean_motion_ddot": 0,
        "tle_line1": "1 39781U 97051AAN 25349.01093638  .00008021  00000+0  31777-2 0  9990",
        "tle_line2": "2 39781  86.3710 257.0430 0175638 266.0338 111.7662 14.20707890 81397"
      },
      "geometry": {
        "type": "Point",
        "coordinates": [
          81.45800052989149,
          -54.629387559944675
        ]
      }
    },
    {
      "type": "Feature",
      "properties": {
        "norad_id": 40996,
        "name": "IRIDIUM 33 DEB",
        "group": "iridium-33-debris",
        "lat": 54.090059763096164,
        "lon": 4.594013780914345,
        "alt_km": 564.6638872389531,
        "timestamp": "2025-12-16T17:51:11.318075+00:00",
        "meta_object_name": "IRIDIUM 33 DEB",
        "meta_object_id": "1997-051ABJ",
        "meta_epoch": "2025-12-15T11:47:42.645984",
        "meta_mean_motion": 14.96438561,
        "meta_eccentricity": 0.00116545,
        "meta_inclination": 86.3518,
        "meta_ra_of_asc_node": 0.1244,
        "meta_arg_of_pericenter": 56.0397,
        "meta_mean_anomaly": 95.6858,
        "meta_ephemeris_type": 0,
        "meta_classification_type": "U",
        "meta_norad_cat_id": 40996,
        "meta_element_set_no": 999,
        "meta_rev_at_epoch": 62529,
        "meta_bstar": 0.0017261514,
        "meta_mean_motion_dot": 0.00019657,
        "meta_mean_motion_ddot": 0,
        "tle_line1": "1 40996U 97051ABJ 25349.49146581  .00019657  00000+0  17262-2 0  9998",
        "tle_line2": "2 40996  86.3518   0.1244 0011654  56.0397  95.6858 14.96438561625291"
      },
      "geometry": {
        "type": "Point",
        "coordinates": [
          4.594013780914345,
          54.090059763096164
        ]
      }
    },
    {
      "type": "Feature",
      "properties": {
        "norad_id": 40998,
        "name": "IRIDIUM 33 DEB",
        "group": "iridium-33-debris",
        "lat": 48.918821149330384,
        "lon": -132.21527168540524,
        "alt_km": 733.7932783124306,
        "timestamp": "2025-12-16T17:51:11.318086+00:00",
        "meta_object_name": "IRIDIUM 33 DEB",
        "meta_object_id": "1997-051ABL",
        "meta_epoch": "2025-12-14T22:36:58.178592",
        "meta_mean_motion": 14.45106117,
        "meta_eccentricity": 0.00094247,
        "meta_inclination": 86.383,
        "meta_ra_of_asc_node": 52.7149,
        "meta_arg_of_pericenter": 78.6428,
        "meta_mean_anomaly": 45.8037,
        "meta_ephemeris_type": 0,
        "meta_classification_type": "U",
        "meta_norad_cat_id": 40998,
        "meta_element_set_no": 999,
        "meta_rev_at_epoch": 6713,
        "meta_bstar": 0.0004149731,
        "meta_mean_motion_dot": 1.471e-05,
        "meta_mean_motion_ddot": 0,
        "tle_line1": "1 40998U 97051ABL 25348.94234003  .00001471  00000+0  41497-3 0  9999",
        "tle_line2": "2 40998  86.3830  52.7149 0009424  78.6428  45.8037 14.45106117 67136"
      },
      "geometry": {
        "type": "Point",
        "coordinates": [
          -132.21527168540524,
          48.918821149330384
        ]
      }
    },
    {
      "type": "Feature",
      "properties": {
        "norad_id": 46435,
        "name": "IRIDIUM 33 DEB",
        "group": "iridium-33-debris",
        "lat": 6.7965411568623395,
        "lon": 11.783012136804635,
        "alt_km": 782.8721195732114,
        "timestamp": "2025-12-16T17:51:11.318096+00:00",
        "meta_object_name": "IRIDIUM 33 DEB",
        "meta_object_id": "1997-051ABN",
        "meta_epoch": "2025-12-13T20:22:29.882208",
        "meta_mean_motion": 14.32399442,
        "meta_eccentricity": 0.0208315,
        "meta_inclination": 86.2839,
        "meta_ra_of_asc_node": 193.4722,
        "meta_arg_of_pericenter": 272.7642,
        "meta_mean_anomaly": 103.0816,
        "meta_ephemeris_type": 0,
        "meta_classification_type": "U",
        "meta_norad_cat_id": 46435,
        "meta_element_set_no": 999,
        "meta_rev_at_epoch": 7932,
        "meta_bstar": 0.009141333,
        "meta_mean_motion_dot": 0.00031559,
        "meta_mean_motion_ddot": 0,
        "tle_line1": "1 46435U 97051ABN 25347.84895697  .00031559  00000+0  91413-2 0  9993",
        "tle_line2": "2 46435  86.2839 193.4722 0208315 272.7642 103.0816 14.32399442 79328"
      },
      "geometry": {
        "type": "Point",
        "coordinates": [
          11.783012136804635,
          6.7965411568623395
        ]
      }
    }
  ]
}